C/2020 O2 (Amaral),h,08/28.6068/2021,71.7508,256.7571,10.3083,1.002340,4.862252,2000,8.0,3.2
# From MPEC 2020-SI8
P/2020 O3 (PANSTARRS),e,8.4421,266.8279,81.5858,4.650453,0.0982791,0.10392388,37.1254,02/12.0/2022,2000,g 12.0,4.0
# From MPEC 2021-BE3
C/2020 P1 (NEOWISE),h,10/20.2085/2020,45.0905,53.5168,8.8890,1.000272,0.341759,2000,14.0,3.2
# From MPEC 2022-C56
C/2020 P3 (ATLAS),e,61.8859,19.4745,82.2520,34589,0.0000002,0.99980305,0.0000,04/20.8875/2021,2000,g  6.0,4.0
# From MPEC 2022-C56
C/2020 PV6 (PANSTARRS),e,128.2391,329.1449,71.3848,41.80738,0.0036461,0.94508927,0.5068,02/12.0/2022,2000,g 10.0,4.0
# From MPEC 2021-N06
C/2020 Q1 (Borisov),e,142.9167,52.4146,9.9022,58.66245,0.0021936,0.97758257,0.0000,08/14.5649/2020,2000,g 14.0,4.0
# From MPEC 2022-C56
C/2020 R2 (PANSTARRS),e,53.2282,195.0934,211.7384,409.4817,0.0001189,0.98854193,0.0000,02/24.5202/2022,2000,g  9.0,4.0
# From MPEC 2022-C56
C/2020 R4 (ATLAS),e,164.4624,323.2742,46.7206,98.77029,0.0010041,0.98958567,0.0000,03/01.9654/2021,2000,g 13.5,4.0
# From MPEC 2020-W26
P/2020 R5 (PANSTARRS),e,11.4515,272.9772,82.4523,4.983074,0.0886050,0.31471421,55.2954,02/12.0/2022,2000,g  9.5,6.0
# From MPEC 2021-Y10
C/2020 R6 (Rankin),e,82.8122,12.1779,272.0034,353.9213,0.0001480,0.99115233,0.0000,09/09.5506/2019,2000,g 11.0,4.0
# From MPEC 2022-A21
C/2020 R7 (ATLAS),e,114.8918,268.2803,347.8281,1310287,0.0000000,0.99999774,0.0000,09/16.2036/2022,2000,g  7.0,3.2
# From MPEC 2021-BE3
P/2020 S1 (PANSTARRS),e,13.7333,129.4613,254.9284,5.985486,0.0673062,0.50750247,26.3054,02/12.0/2022,2000,g 14.0,4.0
# From MPEC 2021-BE3
C/2020 S2 (PANSTARRS),e,22.3994,197.6725,202.2953,10.19961,0.0302572,0.82781972,12.6172,02/12.0/2022,2000,g 17.0,4.0
# From MPEC 2022-C56
C/2020 S3 (Erasmus),e,19.9295,222.7940,349.9839,177.1758,0.0004179,0.99775968,0.0000,12/12.6734/2020,2000,g 13.5,3.2
# From MPEC 2022-C56
C/2020 S4 (PANSTARRS),h,02/09.3398/2023,20.5731,117.7207,21.0103,1.000463,3.369431,2000,8.5,3.2
# From MPEC 2021-BE3
P/2020 S5 (PANSTARRS),e,12.3531,316.0016,53.1049,4.051474,0.1208605,0.33859234,66.7465,02/12.0/2022,2000,g 14.5,4.0
# From MPEC 2021-P47
P/2020 S6 (Leonard),e,15.4595,242.5532,176.6702,3.600124,0.1442872,0.47932114,64.2559,02/12.0/2022,2000,g 16.0,4.0
# From MPEC 2021-BE3
P/2020 S7 (PANSTARRS),e,16.0918,328.0200,40.4746,5.025865,0.0874758,0.41067697,39.4191,02/12.0/2022,2000,g 14.5,4.0
# From MPEC 2021-P47
C/2020 S8 (Lemmon),e,108.5244,24.0558,160.3290,275.4604,0.0002156,0.99141928,0.0000,04/10.9187/2021,2000,g 12.5,4.0
# From MPEC 2022-C56
C/2020 T2 (Palomar),e,27.8695,83.0434,150.4039,317.8764,0.0001739,0.99353550,0.0000,07/11.1829/2021,2000,g 11.0,3.2
# From MPEC 2021-N06
P/2020 T3 (PANSTARRS),e,7.2957,74.0073,357.0386,3.517488,0.1494016,0.59169972,57.8946,02/12.0/2022,2000,g 18.0,3.2
# From MPEC 2021-N06
C/2020 T4 (PANSTARRS),h,07/05.2616/2021,83.8165,50.6165,79.6103,1.000086,2.191888,2000,13.0,3.2
# From MPEC 2021-BE3
C/2020 T5 (Lemmon),e,66.5891,237.8594,90.3079,825.3979,0.0000416,0.99771078,0.0000,10/09.6009/2020,2000,g 16.0,4.0
# From MPEC 2021-N06
P/2020 U2 (PANSTARRS),e,6.4211,342.8991,84.6413,3.778128,0.1342113,0.51074328,55.4647,02/12.0/2022,2000,g 18.0,4.0
# From MPEC 2021-W31
C/2020 U3 (Rankin),e,30.1716,282.6765,124.2785,65.59172,0.0018554,0.96529619,0.6883,02/12.0/2022,2000,g 15.0,4.0
# From MPEC 2022-C56
C/2020 U4 (PANSTARRS),h,04/07.9497/2022,167.0359,120.0142,69.5304,1.001418,5.353691,2000,7.0,4.0
# From MPEC 2022-C56
C/2020 U5 (PANSTARRS),e,97.2706,107.3372,75.4160,6005,0.0000021,0.99937450,0.0000,04/27.8811/2022,2000,g  8.0,4.0
# From MPEC 2022-C56
C/2020 V2 (ZTF),h,05/08.4975/2023,131.6091,212.3620,162.4025,1.001185,2.228232,2000,4.9,4.0
# From MPEC 2021-N06
P/2020 V3 (PANSTARRS),e,23.0315,198.2629,249.3311,8.371833,0.0406886,0.25581630,14.9877,02/12.0/2022,2000,g  8.3,4.0
# From MPEC 2022-C56
P/2020 V4 (Rankin),e,14.2429,203.4961,256.9927,9.351359,0.0344661,0.44943448,7.2105,02/12.0/2022,2000,g  9.0,4.0
# From MPEC 2021-BE3
P/2020 W1 (Rankin),e,10.7911,124.2640,264.9149,7.204565,0.0509674,0.26589111,34.5073,02/12.0/2022,2000,g 10.0,4.0
# From MPEC 2021-BE3
C/2020 W5 (Lemmon),h,11/30.0806/2020,88.5833,75.4997,24.4814,1.000756,3.364341,2000,15.0,4.0
# From MPEC 2021-P47
P/2020 X1 (ATLAS),e,31.6945,56.0169,323.3003,4.527489,0.1023100,0.36551116,58.4718,02/12.0/2022,2000,g 13.0,4.0
# From MPEC 2021-U31
C/2020 X2 (ATLAS),e,18.1884,105.4518,347.3412,16.41371,0.0148216,0.76678061,6.7168,02/12.0/2022,2000,g 10.6,4.0
# From MPEC 2021-S45
C/2020 X4 (Leonard),e,80.6355,161.8898,140.2898,42.40379,0.0035694,0.87696131,1.6133,02/12.0/2022,2000,g  9.0,4.0
# From MPEC 2022-C56
C/2020 Y2 (ATLAS),e,101.2966,26.5117,266.0999,1149,0.0000253,0.99727367,0.0000,06/17.6762/2022,2000,g  6.5,4.0
# From MPEC 2021-R75
C/2020 Y3 (ATLAS),e,83.1011,191.4345,342.0217,147.9494,0.0005477,0.98649012,0.0000,12/03.4377/2020,2000,g 13.5,4.0
# From MPEC 2022-C56
C/2021 A1 (Leonard),h,01/03.2991/2022,132.6864,255.8962,225.0926,1.000027,0.615257,2000,8.5,4.0
# From MPEC 2021-U31
C/2021 A2 (NEOWISE),e,106.9775,125.2328,338.8271,247.3873,0.0002533,0.99428968,0.0000,01/22.5981/2021,2000,g 13.5,4.0
# From MPEC 2021-R75
C/2021 A4 (NEOWISE),e,111.5584,307.0965,204.6947,43.03131,0.0034916,0.97336195,0.0000,03/20.0137/2021,2000,g 16.0,4.0
# From MPEC 2021-BE3
P/2021 A5 (PANSTARRS),e,18.1876,328.7680,61.1995,3.047059,0.1853031,0.13980562,84.6975,02/12.0/2022,2000,g 15.0,4.0
# From MPEC 2022-C56
C/2021 A6 (PANSTARRS),e,75.6116,164.0793,351.6956,10834,0.0000009,0.99926817,0.0000,05/04.1832/2021,2000,g  7.0,4.0
# From MPEC 2022-C56
C/2021 A7 (NEOWISE),e,78.1496,154.5181,356.0516,5410,0.0000025,0.99963633,0.0000,07/15.2988/2021,2000,g 10.0,4.0
# From MPEC 2022-C56
C/2021 A9 (PANSTARRS),h,12/01.3832/2023,158.0259,314.8430,211.4597,1.003817,7.759700,2000,6.0,4.0
# From MPEC 2021-N06
C/2021 A10 (NEOWISE),e,151.5775,188.3756,82.3851,98.04123,0.0010153,0.98704085,0.0000,03/15.3469/2021,2000,g 19.0,4.0
# From MPEC 2022-C56
C/2021 B2 (PANSTARRS),e,38.0910,120.5532,334.9678,351.8303,0.0001493,0.99285765,0.0000,05/04.2685/2021,2000,g 14.0,4.0
# From MPEC 2021-N06
C/2021 B3 (NEOWISE),e,119.4830,67.2866,293.5547,34.85178,0.0047903,0.93801778,1.6197,02/12.0/2022,2000,g 13.5,4.0
# From MPEC 2022-C56
C/2021 C1 (Rankin),e,143.0437,186.8956,336.2988,52340,0.0000001,0.99993350,0.0000,12/07.1010/2020,2000,g 11.5,4.0
# From MPEC 2021-U31
P/2021 C2 (PANSTARRS),e,21.9282,66.4804,78.7805,9.536767,0.0334659,0.48727388,11.8098,02/12.0/2022,2000,g 12.0,4.0
# From MPEC 2021-N06
C/2021 C3 (Catalina),e,122.1644,181.9248,357.1335,63.04050,0.0019691,0.96389561,0.7180,02/12.0/2022,2000,g 14.0,4.0
# From MPEC 2022-A21
C/2021 C4 (ATLAS),e,132.8487,194.2755,320.2311,15573,0.0000005,0.99971078,0.0000,01/17.0958/2021,2000,g  9.0,4.0
# From MPEC 2022-C56
C/2021 C5 (PANSTARRS),e,50.7850,323.6901,270.9179,4356,0.0000034,0.99925571,0.0000,02/11.0447/2023,2000,g  9.0,4.0
# From MPEC 2022-C56
C/2021 C6 (Lemmon),h,11/13.3136/2021,164.6257,332.1555,203.5596,1.001649,3.271205,2000,12.0,4.0
# From MPEC 2021-N06
C/2021 D1 (SWAN),e,31.4565,311.2692,72.2340,97.97044,0.0010164,0.99079466,0.0000,02/27.6335/2021,2000,g 13.0,4.0
# From MPEC 2022-C56
C/2021 D2 (ZTF),h,02/03.9819/2022,83.8306,305.6789,125.0300,1.001451,2.946301,2000,9.0,4.0
# From MPEC 2021-N06
A/2021 E2,e,167.4882,190.8176,342.4524,235.0406,0.0002735,0.99026686,0.0000,12/10.4651/2020,2000,g 15.0,2.0
# From MPEC 2022-A21
C/2021 E3 (ZTF),h,06/11.9066/2022,112.5562,104.4683,228.8454,1.000849,1.777429,2000,8.5,4.0
# From MPEC 2022-C56
A/2021 E4,e,116.3609,171.1735,48.2792,696.9228,0.0000536,0.99329051,0.0000,04/25.3366/2022,2000,g 13.5,2.0
# From MPEC 2022-C56
C/2021 F1 (Lemmon-PANSTARRS),e,107.3244,203.4515,146.8227,236.1586,0.0002716,0.99578468,0.0000,04/06.8737/2022,2000,g 13.5,4.0
# From MPEC 2021-J72
C/2021 G1 (Leonard),e,131.5630,270.6974,107.4765,75.09843,0.0015145,0.95441216,0.3102,02/12.0/2022,2000,g 14.0,4.0
# From MPEC 2022-C56
C/2021 G2 (ATLAS),e,48.4730,221.1211,343.3709,3874,0.0000041,0.99871509,0.0000,09/10.0393/2024,2000,g  5.5,4.0
# From MPEC 2022-C56
C/2021 G3 (PANSTARRS),h,10/16.5597/2021,102.8552,147.4053,10.3996,1.000162,5.177994,2000,10.5,4.0
# From MPEC 2021-Y10
P/2021 HS (PANSTARRS),e,12.1710,262.3906,46.0854,4.194325,0.1147390,0.81010697,21.7567,02/12.0/2022,2000,g 22.0,4.0
# From MPEC 2022-C56
C/2021 J1 (Maury-Attard),e,92.7185,88.3224,147.3303,26.45048,0.0072453,0.93418723,2.5905,02/12.0/2022,2000,g 15.5,4.0
# From MPEC 2022-C56
C/2021 J2 (PANSTARRS),e,156.2091,23.3294,172.0573,117.2934,0.0007759,0.95987351,0.1106,02/12.0/2022,2000,g 12.0,4.0
# From MPEC 2021-S45
P/2021 J3 (ATLAS),e,14.5495,111.2062,125.9699,8.942128,0.0368589,0.45028238,35.1216,02/12.0/2022,2000,g  7.0,4.0
# From MPEC 2022-C56
C/2021 K1 (ATLAS),e,16.2758,140.9043,184.2820,12.70566,0.0217625,0.80342458,6.1701,02/12.0/2022,2000,g 11.0,4.0
# From MPEC 2021-R75
C/2021 K2 (MASTER),h,09/09.2783/2021,100.8376,282.2482,343.3368,1.000586,5.466754,2000,8.0,4.0
# From MPEC 2021-U31
C/2021 K3 (Catalina),h,02/02.6931/2022,134.7765,114.4509,181.9960,1.003283,5.229845,2000,10.0,4.0
# From MPEC 2021-W31
P/2021 L2 (Leonard),e,21.0689,266.6598,51.5230,4.051085,0.1208779,0.52151693,24.4814,02/12.0/2022,2000,g 17.0,4.0
# From MPEC 2021-WD8
C/2021 L3 (Borisov),h,02/14.0165/2022,78.5798,344.9682,91.6150,1.001275,8.457341,2000,6.0,4.0
# From MPEC 2021-R75
P/2021 L4 (PANSTARRS),e,16.9615,243.2244,234.5838,3.164959,0.1750459,0.11856231,156.1764,02/12.0/2022,2000,g 13.5,4.0
# From MPEC 2021-P47
P/2021 N1 (ZTF),e,11.5055,301.1657,21.1962,2.977116,0.1918715,0.67674196,48.0550,02/12.0/2022,2000,g 19.0,4.0
# From MPEC 2022-C56
P/2021 N2 (Fuls),e,13.0629,221.7424,177.3441,6.932800,0.0539934,0.45236861,4.8975,02/12.0/2022,2000,g  9.5,4.0
# From MPEC 2021-W31
C/2021 N3 (PANSTARRS),e,26.7497,337.4945,304.6451,161.0987,0.0004820,0.96456336,0.2611,02/12.0/2022,2000,g  8.5,4.0
# From MPEC 2022-A21
C/2021 O1 (Nishimura),e,27.5756,41.6064,74.4537,2902,0.0000063,0.99972885,0.0000,08/13.9313/2021,2000,g 10.5,4.0
